[{"OBJECT_NAME":"STARLINK-32850","OBJECT_ID":"2025-029C","EPOCH":"2026-03-09T17:32:16.095840","MEAN_MOTION":15.30204094,"ECCENTRICITY":9.321e-5,"INCLINATION":53.1582,"RA_OF_ASC_NODE":232.2819,"ARG_OF_PERICENTER":78.1126,"MEAN_ANOMALY":281.9979,"EPHEMERIS_TYPE":0,"CLASSIFICATION_TYPE":"U","NORAD_CAT_ID":62950,"ELEMENT_SET_NO":999,"REV_AT_EPOCH":6133,"BSTAR":0.00083267592,"MEAN_MOTION_DOT":0.00024386,"MEAN_MOTION_DDOT":0},{"OBJECT_NAME":"ATLAS 2AS CENTAUR R\/B","OBJECT_ID":"2000-007B","EPOCH":"2026-03-09T10:06:24.289344","MEAN_MOTION":9.16088493,"ECCENTRICITY":0.31299665,"INCLINATION":18.0657,"RA_OF_ASC_NODE":132.8404,"ARG_OF_PERICENTER":137.1977,"MEAN_ANOMALY":251.9645,"EPHEMERIS_TYPE":0,"CLASSIFICATION_TYPE":"U","NORAD_CAT_ID":26072,"ELEMENT_SET_NO":999,"REV_AT_EPOCH":34733,"BSTAR":0.0015137743,"MEAN_MOTION_DOT":0.00055556,"MEAN_MOTION_DDOT":0}]
